OBJECT_NAME,OBJECT_ID,EPOCH,MEAN_MOTION,ECCENTRICITY,INCLINATION,RA_OF_ASC_NODE,ARG_OF_PERICENTER,MEAN_ANOMALY,EPHEMERIS_TYPE,CLASSIFICATION_TYPE,NORAD_CAT_ID,ELEMENT_SET_NO,REV_AT_EPOCH,BSTAR,MEAN_MOTION_DOT,MEAN_MOTION_DDOT
ONEWEB-0151,2021-025AA,2026-06-03T23:16:38.968608,13.13469852,.00016873,87.8943,322.8517,95.0031,265.1290,0,U,48066,999,25185,-.26722808E-3,-.85E-6,0
ONEWEB-0170,2021-025AB,2026-06-03T23:28:51.709728,13.13429897,.00012181,87.8946,322.8532,81.0531,279.0736,0,U,48067,999,25181,.23225548E-1,.8497E-4,0
ONEWEB-0168,2021-025AC,2026-06-03T23:06:53.970624,13.13469747,.00018313,87.8952,322.8535,99.3788,260.7549,0,U,48068,999,25182,-.6080653E-3,-.209E-5,0
ONEWEB-0173,2021-025AD,2026-06-04T00:44:24.555264,13.13469557,.00016652,87.8945,322.8423,105.1258,255.0055,0,U,48069,999,25207,-.80055093E-3,-.28E-5,0
ONEWEB-0171,2021-025AE,2026-06-03T12:50:10.874976,13.13469164,.00016036,87.8950,322.9501,90.2000,269.9313,0,U,48070,999,25182,.73654503E-3,.282E-5,0
ONEWEB-0172,2021-025AF,2026-06-03T23:19:05.656800,13.13470763,.0001659,87.8950,322.8521,96.9353,263.1965,0,U,48071,999,25277,-.1894913E-3,-.56E-6,0
ONEWEB-0174,2021-025AG,2026-06-04T00:41:59.163072,13.13469285,.0001932,87.8949,322.8401,95.9573,264.1777,0,U,48072,999,25210,-.94418738E-3,-.332E-5,0
ONEWEB-0175,2021-025AH,2026-06-03T23:36:10.184544,13.13470081,.00014399,87.8954,322.8326,90.2938,269.8356,0,U,48073,999,25175,.62506989E-3,.241E-5,0
ONEWEB-0177,2021-025AJ,2026-06-04T18:10:11.287776,13.13470534,.0001909,87.8952,322.6973,99.5171,260.6174,0,U,48074,999,25204,.99103E-3,.375E-5,0
ONEWEB-0178,2021-025AK,2026-06-04T00:20:13.612416,13.13470455,.000155,87.8938,322.8599,97.9095,262.2210,0,U,48075,999,25199,-.20520104E-3,-.62E-6,0
ONEWEB-0108,2021-025AL,2026-06-03T23:21:31.969152,13.13469900,.00019934,87.8954,322.8445,89.2837,270.8520,0,U,48076,999,25191,-.44160915E-4,-.3E-7,0
ONEWEB-0169,2021-025AM,2026-06-04T00:07:51.000096,13.13468942,.00019039,87.8945,322.8469,95.1865,264.9482,0,U,48077,999,25057,.53286372E-3,.207E-5,0
ONEWEB-0176,2021-031A,2026-06-03T07:48:47.875104,13.14502455,.00017678,87.8957,292.4626,102.6339,257.4989,0,U,48210,999,24649,-.40777726E-3,-.138E-5,0
ONEWEB-0184,2021-031B,2026-06-03T07:09:58.192416,13.14502084,.00010946,87.8962,292.4682,120.5011,239.6227,0,U,48211,999,24646,.87473715E-3,.337E-5,0
ONEWEB-0179,2021-031C,2026-06-03T08:05:06.025920,14.25512611,.02188881,87.8981,290.3070,302.7915,55.2358,0,U,48212,999,24707,.63600472E-4,.21E-5,0
ONEWEB-0180,2021-031D,2026-06-03T10:53:45.922272,13.14501669,.00014722,87.8967,292.4341,109.9494,250.1795,0,U,48213,999,24641,.402893E-3,.162E-5,0
ONEWEB-0218,2021-031E,2026-06-03T07:46:30.170784,13.14501021,.00011879,87.8962,292.4578,125.3710,234.7531,0,U,48214,999,24655,-.13212358E-3,-.36E-6,0
ONEWEB-0209,2021-031F,2026-06-03T07:30:31.257792,13.14504408,.00018785,87.8958,292.4784,102.9433,257.1907,0,U,48215,999,24655,.35489726E-3,.144E-5,0
ONEWEB-0198,2021-031G,2026-06-02T20:10:14.022048,13.14501677,.000173,87.8942,292.5736,113.6186,246.5126,0,U,48216,999,24660,.63388483E-3,.248E-5,0
ONEWEB-0189,2021-031H,2026-06-02T18:38:41.771040,13.14502191,.0001687,87.8956,292.5705,106.9699,253.1616,0,U,48217,999,24633,-.23789E-4,.4E-7,0
ONEWEB-0196,2021-031J,2026-06-03T10:33:12.806784,13.14502224,.00018999,87.8951,292.4467,111.6360,248.4973,0,U,48218,999,24642,.595333E-3,.234E-5,0
ONEWEB-0183,2021-031K,2026-06-03T08:07:03.912672,13.14503567,.00020081,87.8957,292.4654,96.2894,263.8465,0,U,48219,999,24650,.79212296E-4,.42E-6,0
ONEWEB-0185,2021-031L,2026-06-03T10:34:20.385408,13.14501414,.00021853,87.8960,292.4377,109.6007,250.5359,0,U,48220,999,24644,.55762375E-3,.22E-5,0
ONEWEB-0187,2021-031M,2026-06-03T17:24:02.873664,13.14502138,.00019844,87.8948,292.3984,106.0400,254.0949,0,U,48221,999,24649,-.34658984E-3,-.116E-5,0
ONEWEB-0192,2021-031N,2026-06-03T07:32:48.032448,13.14504273,.00017532,87.8950,292.4705,101.0553,259.0774,0,U,48222,999,24635,.14458257E-3,.66E-6,0
ONEWEB-0219,2021-031P,2026-06-03T10:42:20.169792,13.14504045,.00020194,87.8951,292.4363,105.5956,254.5397,0,U,48223,999,24657,.74315007E-3,.288E-5,0
ONEWEB-0202,2021-031Q,2026-06-02T19:38:04.181280,13.14501976,.00013502,87.8954,292.5731,115.9239,244.2030,0,U,48224,999,24647,.77347249E-4,.41E-6,0
ONEWEB-0204,2021-031R,2026-06-03T11:04:02.511552,13.14502191,.00021942,87.8957,292.4397,97.3442,262.7937,0,U,48225,999,24645,.53903883E-3,.213E-5,0
ONEWEB-0205,2021-031S,2026-06-03T10:28:38.622432,13.14504177,.00019117,87.8952,292.4359,110.7659,249.3676,0,U,48226,999,24646,.66866415E-3,.261E-5,0
ONEWEB-0206,2021-031T,2026-06-03T08:00:13.032288,13.14502795,.0001832,87.8956,292.4595,94.1574,265.9765,0,U,48227,999,24640,-.55398371E-3,-.193E-5,0
ONEWEB-0182,2021-031U,2026-06-03T07:53:21.359616,13.14502155,.00020731,87.8955,292.4685,97.7315,262.4050,0,U,48228,999,24661,-.33203392E-3,-.11E-5,0
ONEWEB-0186,2021-031V,2026-06-03T08:09:20.273472,13.14501645,.00018777,87.8961,292.4559,102.6301,257.5039,0,U,48229,999,24656,-.43110561E-3,-.147E-5,0
ONEWEB-0181,2021-031W,2026-06-02T18:50:06.951552,13.14502025,.00018198,87.8945,292.5986,105.7316,254.4015,0,U,48230,999,24634,-.36094127E-3,-.121E-5,0
ONEWEB-0188,2021-031X,2026-06-03T10:21:48.140352,13.14503267,.00019062,87.8945,292.4683,99.7369,260.3976,0,U,48231,999,24633,.11202682E-3,.54E-6,0
ONEWEB-0220,2021-031Y,2026-06-03T07:39:38.268288,13.14507945,.00017084,87.8955,292.4548,127.1212,233.0074,0,U,48232,999,24658,-.44966605E-2,-.1654E-4,0
ONEWEB-0165,2021-031Z,2026-06-01T08:50:55.105440,13.14502513,.00016253,87.8951,292.8644,108.3873,251.7434,0,U,48233,999,24628,.31819132E-3,.131E-5,0
ONEWEB-0199,2021-031AA,2026-06-03T07:57:55.765152,13.14501975,.0001875,87.8966,292.4576,94.0433,266.0911,0,U,48234,999,24644,-.55881666E-3,-.194E-5,0
ONEWEB-0203,2021-031AB,2026-06-03T07:44:13.465248,13.14501644,.00016586,87.8967,292.4624,104.1529,255.9785,0,U,48235,999,24645,-.31691003E-3,-.105E-5,0
ONEWEB-0197,2021-031AC,2026-06-03T10:46:43.471200,13.14503298,.00021536,87.8950,292.4255,99.8500,260.2873,0,U,48236,999,24638,.70393662E-3,.274E-5,0
ONEWEB-0194,2021-031AD,2026-06-02T19:40:20.614656,13.14501382,.00017501,87.8953,292.5724,92.3604,267.7727,0,U,48237,999,24647,.99848517E-4,.5E-6,0
ONEWEB-0193,2021-031AE,2026-06-03T10:40:03.534240,13.14500854,.00016249,87.8957,292.4386,92.2822,267.8494,0,U,48238,999,24650,.37709342E-3,.153E-5,0
ONEWEB-0191,2021-031AF,2026-06-03T07:16:49.827936,13.14501589,.00019845,87.8958,292.4645,100.9455,259.1898,0,U,48239,999,24634,.75433853E-3,.292E-5,0
ONEWEB-0195,2021-031AG,2026-06-03T06:43:41.199744,13.14502061,.00016996,87.8970,292.4685,120.9402,239.1895,0,U,48240,999,24632,-.30626936E-3,-.101E-5,0
ONEWEB-0201,2021-031AH,2026-06-02T19:29:07.781568,13.14504025,.00021302,87.8950,292.5800,101.7639,258.3729,0,U,48241,999,24649,-.20662482E-3,-.64E-6,0
ONEWEB-0207,2021-031AJ,2026-06-03T07:47:38.928768,13.14501720,.00021092,87.8961,292.4619,101.5090,258.6277,0,U,48242,999,24647,-.41117297E-3,-.14E-5,0
ONEWEB-0208,2021-031AK,2026-06-03T11:00:37.353888,13.14502474,.00016784,87.8956,292.4422,107.5541,252.5772,0,U,48243,999,24650,.4211089E-3,.169E-5,0
ONEWEB-0200,2021-031AL,2026-06-04T04:24:08.269056,13.14520711,.00019861,87.8906,292.2919,154.1330,205.9900,0,U,48244,999,24652,.94177077E-2,.3507E-4,0
ONEWEB-0217,2021-031AM,2026-06-03T06:51:42.299136,13.14501872,.00016014,87.8953,292.4644,107.6974,252.4330,0,U,48245,999,24635,.66225405E-3,.258E-5,0
ONEWEB-0211,2021-045A,2026-06-04T13:43:09.003072,13.16196918,.0001552,87.9001,261.5974,119.4424,240.6861,0,U,48767,999,24278,.30089E-3,.127E-5,0
ONEWEB-0223,2021-045B,2026-06-04T06:19:26.160672,13.15544437,.0001597,87.9008,261.7645,105.0968,255.0339,0,U,48768,999,24270,.57328E-4,.34E-6,0
ONEWEB-0230,2021-045C,2026-06-04T05:38:23.714016,13.15547833,.0002048,87.8999,261.7842,95.4358,264.7006,0,U,48769,999,24296,-.67533E-4,-.13E-6,0
ONEWEB-0237,2021-045D,2026-06-04T05:22:24.606624,13.15550695,.0001677,87.9000,261.7882,98.0738,262.0583,0,U,48770,999,24268,.24698E-3,.106E-5,0
ONEWEB-0235,2021-045E,2026-06-04T15:43:03.343584,13.15548230,.0001508,87.9007,261.6872,101.8646,258.2653,0,U,48771,999,24273,.34867E-3,.144E-5,0
ONEWEB-0242,2021-045F,2026-06-04T13:44:24.711072,13.15548402,.0001832,87.9008,261.6997,96.2400,263.8939,0,U,48772,999,24276,.24091E-3,.104E-5,0
ONEWEB-0241,2021-045G,2026-06-04T06:08:04.124256,13.15547788,.0001616,87.8996,261.7827,108.5903,251.5402,0,U,48773,999,24263,-.87277E-4,-.2E-6,0
ONEWEB-0243,2021-045H,2026-06-04T05:04:10.418016,13.15548104,.000163,87.8999,261.8035,85.0689,275.0627,0,U,48774,999,24265,.41966E-3,.171E-5,0
ONEWEB-0222,2021-045J,2026-06-04T06:29:44.109024,13.15548232,.0001732,87.9008,261.7580,104.9506,255.1816,0,U,48775,999,24270,.41321E-3,.168E-5,0
ONEWEB-0244,2021-045K,2026-06-04T05:17:51.715680,13.15548097,.0001821,87.9015,261.7625,100.4272,259.7064,0,U,48776,999,24326,.36714E-3,.151E-5,0
ONEWEB-0247,2021-045L,2026-06-03T07:19:00.778368,13.15545237,.00015417,87.9004,261.9790,83.6278,276.5028,0,U,48777,999,24258,.60933089E-2,.2307E-4,0
ONEWEB-0245,2021-045M,2026-06-04T16:03:35.894016,13.15547827,.0001915,87.9009,261.6854,111.1968,248.9367,0,U,48778,999,24273,.1073E-3,.53E-6,0
ONEWEB-0229,2021-045N,2026-06-04T15:56:44.579040,13.15548640,.0001819,87.9008,261.6832,95.7685,264.3653,0,U,48779,999,24276,.50633E-3,.203E-5,0
ONEWEB-0228,2021-045P,2026-06-04T05:47:42.340128,13.15550404,.0001835,87.9014,261.7602,101.8714,258.2622,0,U,48780,999,24262,-.15867E-3,-.47E-6,0
ONEWEB-0232,2021-045Q,2026-06-04T05:11:01.040064,13.15549852,.0001794,87.9010,261.7656,97.4742,262.6593,0,U,48781,999,24294,.36667E-3,.151E-5,0
ONEWEB-0231,2021-045R,2026-06-04T15:36:11.988864,13.15548367,.0001713,87.9004,261.6943,103.2733,256.8588,0,U,48782,999,24269,.3711E-3,.153E-5,0
ONEWEB-0234,2021-045S,2026-06-04T05:33:38.245824,13.15548830,.0002388,87.9005,261.7582,119.1682,240.9687,0,U,48783,999,24277,-.73811E-5,.1E-6,0
